{
  "type": "FeatureCollection",
  "features": [
    {
      "type": "Feature",
      "properties": {
        "norad_id": 30526,
        "name": "FENGYUN 1C DEB",
        "group": "fengyun-1c-debris",
        "lat": 52.206593097489126,
        "lon": -99.85146285838265,
        "alt_km": 1243.747357473294,
        "timestamp": "2025-12-11T07:02:24.007267+00:00",
        "meta_object_name": "FENGYUN 1C DEB",
        "meta_object_id": "1999-025AJQ",
        "meta_epoch": "2025-12-09T04:34:45.464736",
        "meta_mean_motion": 13.49895325,
        "meta_eccentricity": 0.0305945,
        "meta_inclination": 99.5476,
        "meta_ra_of_asc_node": 65.5968,
        "meta_arg_of_pericenter": 273.6009,
        "meta_mean_anomaly": 83.019,
        "meta_ephemeris_type": 0,
        "meta_classification_type": "U",
        "meta_norad_cat_id": 30526,
        "meta_element_set_no": 999,
        "meta_rev_at_epoch": 92610,
        "meta_bstar": 0.0018995751,
        "meta_mean_motion_dot": 1.568e-05,
        "meta_mean_motion_ddot": 0,
        "tle_line1": "1 30526U 99025AJQ 25343.19080399  .00001568  00000+0  18996-2 0  9991",
        "tle_line2": "2 30526  99.5476  65.5968 0305945 273.6009  83.0190 13.49895325926108"
      },
      "geometry": {
        "type": "Point",
        "coordinates": [
          -99.85146285838265,
          52.206593097489126
        ]
      }
    },
    {
      "type": "Feature",
      "properties": {
        "norad_id": 30527,
        "name": "FENGYUN 1C DEB",
        "group": "fengyun-1c-debris",
        "lat": 47.24712638586862,
        "lon": -140.22928988460694,
        "alt_km": 1170.2415764217021,
        "timestamp": "2025-12-11T07:02:24.007277+00:00",
        "meta_object_name": "FENGYUN 1C DEB",
        "meta_object_id": "1999-025AJR",
        "meta_epoch": "2025-12-10T14:54:21.722400",
        "meta_mean_motion": 13.31024778,
        "meta_eccentricity": 0.0413156,
        "meta_inclination": 100.0642,
        "meta_ra_of_asc_node": 28.037,
        "meta_arg_of_pericenter": 231.5025,
        "meta_mean_anomaly": 285.297,
        "meta_ephemeris_type": 0,
        "meta_classification_type": "U",
        "meta_norad_cat_id": 30527,
        "meta_element_set_no": 999,
        "meta_rev_at_epoch": 91328,
        "meta_bstar": 0.0022538,
        "meta_mean_motion_dot": 1.672e-05,
        "meta_mean_motion_ddot": 0,
        "tle_line1": "1 30527U 99025AJR 25344.62108475  .00001672  00000+0  22538-2 0  9990",
        "tle_line2": "2 30527 100.0642  28.0370 0413156 231.5025 285.2970 13.31024778913282"
      },
      "geometry": {
        "type": "Point",
        "coordinates": [
          -140.22928988460694,
          47.24712638586862
        ]
      }
    },
    {
      "type": "Feature",
      "properties": {
        "norad_id": 30528,
        "name": "FENGYUN 1C DEB",
        "group": "fengyun-1c-debris",
        "lat": 60.588055350296514,
        "lon": -159.88695946837518,
        "alt_km": 942.9535050617351,
        "timestamp": "2025-12-11T07:02:24.007289+00:00",
        "meta_object_name": "FENGYUN 1C DEB",
        "meta_object_id": "1999-025AJS",
        "meta_epoch": "2025-12-10T02:36:03.702816",
        "meta_mean_motion": 14.13487809,
        "meta_eccentricity": 0.01433079,
        "meta_inclination": 98.2381,
        "meta_ra_of_asc_node": 213.9121,
        "meta_arg_of_pericenter": 233.5875,
        "meta_mean_anomaly": 282.1593,
        "meta_ephemeris_type": 0,
        "meta_classification_type": "U",
        "meta_norad_cat_id": 30528,
        "meta_element_set_no": 999,
        "meta_rev_at_epoch": 97100,
        "meta_bstar": 0.0005199263,
        "meta_mean_motion_dot": 1.039e-05,
        "meta_mean_motion_ddot": 0,
        "tle_line1": "1 30528U 99025AJS 25344.10837619  .00001039  00000+0  51993-3 0  9998",
        "tle_line2": "2 30528  98.2381 213.9121 0143307 233.5875 282.1593 14.13487809971003"
      },
      "geometry": {
        "type": "Point",
        "coordinates": [
          -159.88695946837518,
          60.588055350296514
        ]
      }
    },
    {
      "type": "Feature",
      "properties": {
        "norad_id": 30529,
        "name": "FENGYUN 1C DEB",
        "group": "fengyun-1c-debris",
        "lat": 38.1893699454762,
        "lon": 94.07832671028913,
        "alt_km": 972.6377970631311,
        "timestamp": "2025-12-11T07:02:24.007299+00:00",
        "meta_object_name": "FENGYUN 1C DEB",
        "meta_object_id": "1999-025AJT",
        "meta_epoch": "2025-12-06T17:47:03.624288",
        "meta_mean_motion": 13.71588709,
        "meta_eccentricity": 0.02311835,
        "meta_inclination": 98.4889,
        "meta_ra_of_asc_node": 263.2998,
        "meta_arg_of_pericenter": 238.5675,
        "meta_mean_anomaly": 119.2686,
        "meta_ephemeris_type": 0,
        "meta_classification_type": "U",
        "meta_norad_cat_id": 30529,
        "meta_element_set_no": 999,
        "meta_rev_at_epoch": 93926,
        "meta_bstar": 0.001633705,
        "meta_mean_motion_dot": 1.743e-05,
        "meta_mean_motion_ddot": 0,
        "tle_line1": "1 30529U 99025AJT 25340.74101417  .00001743  00000+0  16337-2 0  9999",
        "tle_line2": "2 30529  98.4889 263.2998 0231183 238.5675 119.2686 13.71588709939261"
      },
      "geometry": {
        "type": "Point",
        "coordinates": [
          94.07832671028913,
          38.1893699454762
        ]
      }
    },
    {
      "type": "Feature",
      "properties": {
        "norad_id": 30530,
        "name": "FENGYUN 1C DEB",
        "group": "fengyun-1c-debris",
        "lat": 40.06314377944196,
        "lon": -149.16541520331253,
        "alt_km": 694.4651405467866,
        "timestamp": "2025-12-11T07:02:24.007309+00:00",
        "meta_object_name": "FENGYUN 1C DEB",
        "meta_object_id": "1999-025AJU",
        "meta_epoch": "2025-12-10T22:36:11.354976",
        "meta_mean_motion": 14.36778576,
        "meta_eccentricity": 0.01001377,
        "meta_inclination": 98.3967,
        "meta_ra_of_asc_node": 23.3562,
        "meta_arg_of_pericenter": 142.1271,
        "meta_mean_anomaly": 340.0026,
        "meta_ephemeris_type": 0,
        "meta_classification_type": "U",
        "meta_norad_cat_id": 30530,
        "meta_element_set_no": 999,
        "meta_rev_at_epoch": 98759,
        "meta_bstar": 0.00035483899,
        "meta_mean_motion_dot": 1.066e-05,
        "meta_mean_motion_ddot": 0,
        "tle_line1": "1 30530U 99025AJU 25344.94179809  .00001066  00000+0  35484-3 0  9990",
        "tle_line2": "2 30530  98.3967  23.3562 0100137 142.1271 340.0026 14.36778576987593"
      },
      "geometry": {
        "type": "Point",
        "coordinates": [
          -149.16541520331253,
          40.06314377944196
        ]
      }
    },
    {
      "type": "Feature",
      "properties": {
        "norad_id": 30531,
        "name": "FENGYUN 1C DEB",
        "group": "fengyun-1c-debris",
        "lat": 44.86096344144284,
        "lon": 158.1984731242649,
        "alt_km": 702.6948786114262,
        "timestamp": "2025-12-11T07:02:24.007319+00:00",
        "meta_object_name": "FENGYUN 1C DEB",
        "meta_object_id": "1999-025AJV",
        "meta_epoch": "2025-12-10T11:06:53.783136",
        "meta_mean_motion": 14.61673569,
        "meta_eccentricity": 0.00281533,
        "meta_inclination": 102.3105,
        "meta_ra_of_asc_node": 169.5191,
        "meta_arg_of_pericenter": 212.3038,
        "meta_mean_anomaly": 147.6425,
        "meta_ephemeris_type": 0,
        "meta_classification_type": "U",
        "meta_norad_cat_id": 30531,
        "meta_element_set_no": 999,
        "meta_rev_at_epoch": 97662,
        "meta_bstar": 0.0067514326,
        "meta_mean_motion_dot": 0.00033898,
        "meta_mean_motion_ddot": 0,
        "tle_line1": "1 30531U 99025AJV 25344.46312249  .00033898  00000+0  67514-2 0  9991",
        "tle_line2": "2 30531 102.3105 169.5191 0028153 212.3038 147.6425 14.61673569976623"
      },
      "geometry": {
        "type": "Point",
        "coordinates": [
          158.1984731242649,
          44.86096344144284
        ]
      }
    },
    {
      "type": "Feature",
      "properties": {
        "norad_id": 30532,
        "name": "FENGYUN 1C DEB",
        "group": "fengyun-1c-debris",
        "lat": -7.8133277351844095,
        "lon": -150.32517425384773,
        "alt_km": 491.5957808634139,
        "timestamp": "2025-12-11T07:02:24.007329+00:00",
        "meta_object_name": "FENGYUN 1C DEB",
        "meta_object_id": "1999-025AJW",
        "meta_epoch": "2025-12-10T19:11:15.811584",
        "meta_mean_motion": 15.24079343,
        "meta_eccentricity": 0.00252023,
        "meta_inclination": 96.9614,
        "meta_ra_of_asc_node": 30.1767,
        "meta_arg_of_pericenter": 263.6282,
        "meta_mean_anomaly": 96.2087,
        "meta_ephemeris_type": 0,
        "meta_classification_type": "U",
        "meta_norad_cat_id": 30532,
        "meta_element_set_no": 999,
        "meta_rev_at_epoch": 97658,
        "meta_bstar": 0.017254916,
        "meta_mean_motion_dot": 0.00447592,
        "meta_mean_motion_ddot": 0,
        "tle_line1": "1 30532U 99025AJW 25344.79948856  .00447592  00000+0  17255-1 0  9993",
        "tle_line2": "2 30532  96.9614  30.1767 0025202 263.6282  96.2087 15.24079343976589"
      },
      "geometry": {
        "type": "Point",
        "coordinates": [
          -150.32517425384773,
          -7.8133277351844095
        ]
      }
    }
  ]
}